{"type":"FeatureCollection","captured_at":"2026-08-04T18:07:29+00:00","features":[{"type":"Feature","geometry":{"type":"Point","coordinates":[-2.03807,54.7409]},"properties":{"reference":"PPCR78355","type":"LV","natureofoutage":"Planned Work on System","postcode":["DL13 2LL"],"archive_source":"Northern Power Grid","incident_key":"PPCR78355"}},{"type":"Feature","geometry":{"type":"Point","coordinates":[-1.46236,54.74]},"properties":{"reference":"PPCR78351","type":"LV","natureofoutage":"Planned Work on System","postcode":["DH6  4RW"],"archive_source":"Northern Power Grid","incident_key":"PPCR78351"}},{"type":"Feature","geometry":{"type":"Point","coordinates":[-1.46541,54.7393]},"properties":{"reference":"PPCR78351","type":"LV","natureofoutage":"Planned Work on System","postcode":["DH6  4RJ"],"archive_source":"Northern Power Grid","incident_key":"PPCR78351"}},{"type":"Feature","geometry":{"type":"Point","coordinates":[-1.46139,54.7408]},"properties":{"reference":"PPCR78351","type":"LV","natureofoutage":"Planned Work on System","postcode":["DH6  4RP"],"archive_source":"Northern Power Grid","incident_key":"PPCR78351"}},{"type":"Feature","geometry":{"type":"Point","coordinates":[-1.46341,54.7395]},"properties":{"reference":"PPCR78351","type":"LV","natureofoutage":"Planned Work on System","postcode":["DH6  4RL"],"archive_source":"Northern Power Grid","incident_key":"PPCR78351"}},{"type":"Feature","geometry":{"type":"Point","coordinates":[-1.46434,54.7394]},"properties":{"reference":"PPCR78351","type":"LV","natureofoutage":"Planned Work on System","postcode":["DH6  4RF"],"archive_source":"Northern Power Grid","incident_key":"PPCR78351"}},{"type":"Feature","geometry":{"type":"Point","coordinates":[-1.46361,54.7393]},"properties":{"reference":"PPCR78351","type":"LV","natureofoutage":"Planned Work on System","postcode":["DH6  4RN"],"archive_source":"Northern Power Grid","incident_key":"PPCR78351"}}]}
{"type":"FeatureCollection","captured_at":"2026-08-04T20:49:38+00:00","features":[{"type":"Feature","geometry":{"type":"Point","coordinates":[-1.46236,54.74]},"properties":{"reference":"PPCR78351","type":"LV","natureofoutage":"Planned Work on System","postcode":["DH6  4RW"],"archive_source":"Northern Power Grid","incident_key":"PPCR78351"}},{"type":"Feature","geometry":{"type":"Point","coordinates":[-1.46139,54.7408]},"properties":{"reference":"PPCR78351","type":"LV","natureofoutage":"Planned Work on System","postcode":["DH6  4RP"],"archive_source":"Northern Power Grid","incident_key":"PPCR78351"}},{"type":"Feature","geometry":{"type":"Point","coordinates":[-1.46541,54.7393]},"properties":{"reference":"PPCR78351","type":"LV","natureofoutage":"Planned Work on System","postcode":["DH6  4RJ"],"archive_source":"Northern Power Grid","incident_key":"PPCR78351"}},{"type":"Feature","geometry":{"type":"Point","coordinates":[-1.46361,54.7393]},"properties":{"reference":"PPCR78351","type":"LV","natureofoutage":"Planned Work on System","postcode":["DH6  4RN"],"archive_source":"Northern Power Grid","incident_key":"PPCR78351"}},{"type":"Feature","geometry":{"type":"Point","coordinates":[-2.03807,54.7409]},"properties":{"reference":"PPCR78355","type":"LV","natureofoutage":"Planned Work on System","postcode":["DL13 2LL"],"archive_source":"Northern Power Grid","incident_key":"PPCR78355"}},{"type":"Feature","geometry":{"type":"Point","coordinates":[-1.46341,54.7395]},"properties":{"reference":"PPCR78351","type":"LV","natureofoutage":"Planned Work on System","postcode":["DH6  4RL"],"archive_source":"Northern Power Grid","incident_key":"PPCR78351"}},{"type":"Feature","geometry":{"type":"Point","coordinates":[-1.46434,54.7394]},"properties":{"reference":"PPCR78351","type":"LV","natureofoutage":"Planned Work on System","postcode":["DH6  4RF"],"archive_source":"Northern Power Grid","incident_key":"PPCR78351"}}]}
{"type":"FeatureCollection","captured_at":"2026-08-04T22:07:26+00:00","features":[{"type":"Feature","geometry":{"type":"Point","coordinates":[-2.03807,54.7409]},"properties":{"reference":"PPCR78355","type":"LV","natureofoutage":"Planned Work on System","postcode":["DL13 2LL"],"archive_source":"Northern Power Grid","incident_key":"PPCR78355"}},{"type":"Feature","geometry":{"type":"Point","coordinates":[-1.46541,54.7393]},"properties":{"reference":"PPCR78351","type":"LV","natureofoutage":"Planned Work on System","postcode":["DH6  4RJ"],"archive_source":"Northern Power Grid","incident_key":"PPCR78351"}},{"type":"Feature","geometry":{"type":"Point","coordinates":[-1.46341,54.7395]},"properties":{"reference":"PPCR78351","type":"LV","natureofoutage":"Planned Work on System","postcode":["DH6  4RL"],"archive_source":"Northern Power Grid","incident_key":"PPCR78351"}},{"type":"Feature","geometry":{"type":"Point","coordinates":[-1.46236,54.74]},"properties":{"reference":"PPCR78351","type":"LV","natureofoutage":"Planned Work on System","postcode":["DH6  4RW"],"archive_source":"Northern Power Grid","incident_key":"PPCR78351"}},{"type":"Feature","geometry":{"type":"Point","coordinates":[-1.46139,54.7408]},"properties":{"reference":"PPCR78351","type":"LV","natureofoutage":"Planned Work on System","postcode":["DH6  4RP"],"archive_source":"Northern Power Grid","incident_key":"PPCR78351"}},{"type":"Feature","geometry":{"type":"Point","coordinates":[-1.46434,54.7394]},"properties":{"reference":"PPCR78351","type":"LV","natureofoutage":"Planned Work on System","postcode":["DH6  4RF"],"archive_source":"Northern Power Grid","incident_key":"PPCR78351"}},{"type":"Feature","geometry":{"type":"Point","coordinates":[-1.46361,54.7393]},"properties":{"reference":"PPCR78351","type":"LV","natureofoutage":"Planned Work on System","postcode":["DH6  4RN"],"archive_source":"Northern Power Grid","incident_key":"PPCR78351"}}]}
{"type":"FeatureCollection","captured_at":"2026-08-04T23:31:41+00:00","features":[{"type":"Feature","geometry":{"type":"Point","coordinates":[-1.46341,54.7395]},"properties":{"reference":"PPCR78351","type":"LV","natureofoutage":"Planned Work on System","postcode":["DH6  4RL"],"archive_source":"Northern Power Grid","incident_key":"PPCR78351"}},{"type":"Feature","geometry":{"type":"Point","coordinates":[-2.03807,54.7409]},"properties":{"reference":"PPCR78355","type":"LV","natureofoutage":"Planned Work on System","postcode":["DL13 2LL"],"archive_source":"Northern Power Grid","incident_key":"PPCR78355"}},{"type":"Feature","geometry":{"type":"Point","coordinates":[-1.46236,54.74]},"properties":{"reference":"PPCR78351","type":"LV","natureofoutage":"Planned Work on System","postcode":["DH6  4RW"],"archive_source":"Northern Power Grid","incident_key":"PPCR78351"}},{"type":"Feature","geometry":{"type":"Point","coordinates":[-1.46361,54.7393]},"properties":{"reference":"PPCR78351","type":"LV","natureofoutage":"Planned Work on System","postcode":["DH6  4RN"],"archive_source":"Northern Power Grid","incident_key":"PPCR78351"}},{"type":"Feature","geometry":{"type":"Point","coordinates":[-1.46434,54.7394]},"properties":{"reference":"PPCR78351","type":"LV","natureofoutage":"Planned Work on System","postcode":["DH6  4RF"],"archive_source":"Northern Power Grid","incident_key":"PPCR78351"}},{"type":"Feature","geometry":{"type":"Point","coordinates":[-1.46139,54.7408]},"properties":{"reference":"PPCR78351","type":"LV","natureofoutage":"Planned Work on System","postcode":["DH6  4RP"],"archive_source":"Northern Power Grid","incident_key":"PPCR78351"}},{"type":"Feature","geometry":{"type":"Point","coordinates":[-1.46541,54.7393]},"properties":{"reference":"PPCR78351","type":"LV","natureofoutage":"Planned Work on System","postcode":["DH6  4RJ"],"archive_source":"Northern Power Grid","incident_key":"PPCR78351"}}]}
